BEIDOU-2 IGSO-1 (C06)   
1 36828U 10036A   26193.88960631 -.00000103  00000+0  00000+0 0  9992
2 36828  54.3059 162.7278 0059161 225.3005 330.1612  1.00264571 58350
BEIDOU-2 G4 (C04)       
1 37210U 10057A   26193.87983905 -.00000118  00000+0  00000+0 0  9995
2 37210   3.7082  68.7868 0005691 184.6714 153.9807  1.00269826 57548
BEIDOU-2 IGSO-2 (C07)   
1 37256U 10068A   26193.68370150 -.00000189  00000+0  00000+0 0  9996
2 37256  47.5013 271.5143 0057122 213.7768 159.7282  1.00274134 57052
BEIDOU-2 IGSO-3 (C08)   
1 37384U 11013A   26193.51258941 -.00000165  00000+0  00000+0 0  9998
2 37384  62.4426  39.9128 0035266 183.3051 358.3524  1.00260977 55918
BEIDOU-2 IGSO-4 (C09)   
1 37763U 11038A   26192.95235030  .00000001  00000+0  00000+0 0  9995
2 37763  54.6042 165.4533 0160284 231.4099 330.0593  1.00279662 54897
BEIDOU-2 IGSO-5 (C10)   
1 37948U 11073A   26183.72937883 -.00000128  00000+0  00000+0 0  9990
2 37948  47.6496 271.3544 0114527 222.0502 141.5350  1.00270596 53296
BEIDOU-2 G5 (C05)       
1 38091U 12008A   26193.85972200  .00000053  00000+0  00000+0 0  9992
2 38091   3.6342  69.5300 0007367 269.3254 320.0646  1.00269596 52622
BEIDOU-2 M3 (C11)       
1 38250U 12018A   26192.88876618 -.00000070  00000+0  00000+0 0  9998
2 38250  55.7352 304.0434 0020998 272.3381  87.4376  1.86229849 96402
BEIDOU-2 M4 (C12)       
1 38251U 12018B   26191.21022507 -.00000069  00000+0  00000+0 0  9993
2 38251  55.6367 303.3120 0012086 272.7348  87.1429  1.86229687 96370
BEIDOU-2 M6 (C14)       
1 38775U 12050B   26193.06769877 -.00000042  00000+0  00000+0 0  9994
2 38775  56.5659  62.0719 0012991   1.2646 358.8073  1.86230837 93772
BEIDOU-2 G6 (C02)       
1 38953U 12059A   26193.95650017 -.00000181  00000+0  00000+0 0  9998
2 38953   4.4842  73.2438 0008816 327.1792 318.7221  1.00274084 50165
BEIDOU-3S IGSO-1S (C31) 
1 40549U 15019A   26183.80025122 -.00000190  00000+0  00000+0 0  9997
2 40549  49.1798 295.2769 0076860 219.1125 144.2493  1.00680073 41232
BEIDOU-3S M2S (C58)     
1 40748U 15037A   26191.41220186 -.00000067  00000+0  00000+0 0  9994
2 40748  54.8489 301.2473 0009273 257.2247 102.6907  1.86232238 74554
BEIDOU-3S M1S (C57)     
1 40749U 15037B   26192.69053808 -.00000066  00000+0  00000+0 0  9990
2 40749  54.8440 301.1898 0002834  63.3740 296.6751  1.86254753 74582
BEIDOU-3S IGSO-2S (C56) 
1 40938U 15053A   26193.65278034 -.00000088  00000+0  00000+0 0  9999
2 40938  49.1821 258.4784 0066336 193.3297 167.2952  1.00253181 39619
BEIDOU-2 IGSO-6 (C13)   
1 41434U 16021A   26177.11016981 -.00000145  00000+0  00000+0 0  9995
2 41434  60.2385  37.9495 0057558 231.0163 137.2672  1.00258926 37578
BEIDOU-2 G7 (C03)       
1 41586U 16037A   26193.87004567 -.00000356  00000+0  00000+0 0  9992
2 41586   1.7801  69.4782 0006005 359.1861 285.8304  1.00274768  7140
BEIDOU-3 M1 (C19)       
1 43001U 17069A   26192.29607669 -.00000044  00000+0  00000+0 0  9993
2 43001  56.7127  62.2910 0009391 328.4947  31.5150  1.86230964 59050
BEIDOU-3 M2 (C20)       
1 43002U 17069B   26191.16097920 -.00000046  00000+0  00000+0 0  9994
2 43002  56.7107  62.3639 0008254 357.9796   2.0799  1.86230592 59020
BEIDOU-3 M7 (C27)       
1 43107U 18003A   26191.43983110 -.00000068  00000+0  00000+0 0  9998
2 43107  54.3060 301.5047 0004517  98.3583 261.7116  1.86228296 57783
BEIDOU-3 M8 (C28)       
1 43108U 18003B   26192.99509958 -.00000067  00000+0  00000+0 0  9994
2 43108  54.2974 301.4318 0003062 258.3591 101.6272  1.86231048 57827
BEIDOU-3 M4 (C22)       
1 43207U 18018A   26192.36436679 -.00000044  00000+0  00000+0 0  9995
2 43207  56.6718  62.3521 0007463  27.7505 332.3554  1.86231098 57191
BEIDOU-3 M3 (C21)       
1 43208U 18018B   26192.96782749 -.00000042  00000+0  00000+0 0  9992
2 43208  56.6719  62.3360 0007638 347.3210  12.7279  1.86230755 57206
BEIDOU-3 M9 (C29)       
1 43245U 18029A   26193.72275047 -.00000062  00000+0  00000+0 0  9990
2 43245  54.1691 299.0556 0001274 187.8327 172.1919  1.86228119 56371
BEIDOU-3 M10 (C30)      
1 43246U 18029B   26193.65697403 -.00000062  00000+0  00000+0 0  9997
2 43246  54.1671 299.0847 0003320  37.6590 322.3904  1.86229266 56356
BEIDOU-2 IGSO-7 (C16)   
1 43539U 18057A   26182.89122331 -.00000033  00000+0  00000+0 0  9998
2 43539  55.1981 162.9292 0104946 237.8611 308.6338  1.00246939 29273
BEIDOU-3 M5 (C23)       
1 43581U 18062A   26193.34395808  .00000077  00000+0  00000+0 0  9991
2 43581  54.0867 181.4489 0005696 292.2984  67.6347  1.86228464 54104
BEIDOU-3 M6 (C24)       
1 43582U 18062B   26193.20754524  .00000079  00000+0  00000+0 0  9993
2 43582  54.0860 181.4429 0005154   9.5773 350.4271  1.86227603 54109
BEIDOU-3 M12 (C26)      
1 43602U 18067A   26192.60902484  .00000088  00000+0  00000+0 0  9994
2 43602  54.1816 180.2122 0007916  30.3589 329.6835  1.86227688 53573
BEIDOU-3 M11 (C25)      
1 43603U 18067B   26193.28111065  .00000076  00000+0  00000+0 0  9994
2 43603  54.1790 180.1532 0004603  13.4814 346.5223  1.86227116 53612
BEIDOU-3 M13 (C32)      
1 43622U 18072A   26193.23583289 -.00000041  00000+0  00000+0 0  9990
2 43622  56.6459  61.8341 0006253 333.6347  26.4027  1.86231235 53125
BEIDOU-3 M14 (C33)      
1 43623U 18072B   26193.10125990 -.00000042  00000+0  00000+0 0  9999
2 43623  56.6480  61.8327 0005521  11.3250 348.7562  1.86231363 53119
BEIDOU-3 M16 (C35)      
1 43647U 18078A   26193.79317590 -.00000062  00000+0  00000+0 0  9997
2 43647  54.0650 299.0879 0006658  39.9488 320.1267  1.86232176 52639
BEIDOU-3 M15 (C34)      
1 43648U 18078B   26192.84854500 -.00000063  00000+0  00000+0 0  9991
2 43648  54.0617 299.1213 0003622  58.6259 301.4334  1.86232290 52632
BEIDOU-3 G1 (C59)       
1 43683U 18085A   26193.39304071 -.00000111  00000+0  00000+0 0  9996
2 43683   2.9285  96.7040 0008075 355.6390 139.3891  1.00272641 28310
BEIDOU-3 M17 (C36)      
1 43706U 18093A   26192.74097604  .00000087  00000+0  00000+0 0  9991
2 43706  54.1700 181.4634 0010132 293.7587 245.5336  1.86228238 51996
BEIDOU-3 M18 (C37)      
1 43707U 18093B   26192.87401650  .00000085  00000+0  00000+0 0  9994
2 43707  54.1711 181.4513 0008033 322.2876  37.6531  1.86226285 51998
BEIDOU-3 IGSO-1 (C38)   
1 44204U 19023A   26193.48865076 -.00000205  00000+0  00000+0 0  9990
2 44204  58.7307  37.3896 0025673 224.1023 323.8830  1.00283752  7461
BEIDOU-2 G8 (C01)       
1 44231U 19027A   26193.87680571 -.00000250  00000+0  00000+0 0  9992
2 44231   1.7196  74.5007 0009753 282.3170  34.1148  1.00272401 26332
BEIDOU-3 IGSO-2 (C39)   
1 44337U 19035A   26193.80040748 -.00000121  00000+0  00000+0 0  9994
2 44337  55.2503 158.6383 0039625 216.5497 322.2986  1.00258293 25926
BEIDOU-3 M24 (C46)      
1 44542U 19061A   26193.47926970  .00000076  00000+0  00000+0 0  9992
2 44542  54.3975 181.8749 0008605 359.4692   0.5232  1.86229201 46260
BEIDOU-3 M23 (C45)      
1 44543U 19061B   26193.86196753  .00000069  00000+0  00000+0 0  9996
2 44543  54.3962 181.8306 0005883 340.0986 187.9044  1.86227255 46272
BEIDOU-3 M22 (C44)      
1 44793U 19078A   26193.85646648 -.00000062  00000+0  00000+0 0  9997
2 44793  53.9110 298.9248 0005691  49.8475 310.2295  1.86227319 45121
BEIDOU-3 M21 (C43)      
1 44794U 19078B   26193.45936353 -.00000062  00000+0  00000+0 0  9999
2 44794  53.8852 298.8992 0003703  52.5088 307.5509  1.86227618 45121
BEIDOU-3 M19 (C41)      
1 44864U 19090A   26193.36018346 -.00000041  00000+0  00000+0 0  9991
2 44864  56.5807  61.9598 0016851 297.6742 193.4156  1.86231323 44708
BEIDOU-3 M20 (C42)      
1 44865U 19090B   26193.25267008 -.00000041  00000+0  00000+0 0  9991
2 44865  56.5819  61.9971 0014506 312.8069 195.7820  1.86231124 44683
BEIDOU-3 G2 (C60)       
1 45344U 20017A   26193.88041876 -.00000143  00000+0  00000+0 0  9990
2 45344   2.9134  47.6837 0001993  59.9091 220.1640  1.00269369 23513
BEIDOU-3 G3 (C61)       
1 45807U 20040A   26193.86995900 -.00000356  00000+0  00000+0 0  9990
2 45807   2.5068  67.4720 0001719 326.6452 320.2587  1.00264988 22323
BEIDOU-3 G4 (C62)       
1 56564U 23066A   26193.87585236 -.00000281  00000+0  00000+0 0  9998
2 56564   0.4624 338.2363 0004869 188.1053 219.7778  1.00273217 11652
BEIDOU-3 M28 (C50)      
1 58654U 23207A   26192.99938589 -.00000044  00000+0  00000+0 0  9999
2 58654  55.7747  61.4661 0002514   3.1911 356.8781  1.86229629 17300
BEIDOU-3 M26 (C48)      
1 58655U 23207B   26191.72295872 -.00000047  00000+0  00000+0 0  9994
2 58655  55.7759  61.4958 0002139 324.4555  35.5938  1.86229637 17268
BEIDOU-3 M25 (C47)      
1 61186U 24168B   26193.78371876 -.00000066  00000+0  00000+0 0  9992
2 61186  54.4489 301.3528 0003283 291.9388 127.1838  1.86229785 12265
BEIDOU-3 M27 (C49)      
1 61187U 24168C   26193.43507694 -.00000066  00000+0  00000+0 0  9994
2 61187  54.4449 301.3477 0001076  50.5538 269.8573  1.86229854  9723
